{"type": "FeatureCollection", "features": [ {"type": "Feature", "properties": {"norad_id": 17070, "name": "POLAR BEAR", "group": "nnss", "lat": -21.944821745700658, "lon": -176.727626196178, "alt_km": 999.4020876055347, "timestamp": "2025-12-21T09:37:22.923209+00:00", "meta": {"OBJECT_NAME": "POLAR BEAR", "OBJECT_ID": "1986-088A", "EPOCH": "2025-12-21T01:34:32.857248", "MEAN_MOTION": 13.75252457, "ECCENTRICITY": 0.0041279, "INCLINATION": 89.617, "RA_OF_ASC_NODE": 183.4403, "ARG_OF_PERICENTER": 95.2642, "MEAN_ANOMALY": 24.2916, "EPHEMERIS_TYPE": 0, "CLASSIFICATION_TYPE": "U", "NORAD_CAT_ID": 17070, "ELEMENT_SET_NO": 999, "REV_AT_EPOCH": 96093, "BSTAR": 8.842e-05, "MEAN_MOTION_DOT": 9.7e-07, "MEAN_MOTION_DDOT": 0}, "tle": {"line1": "1 17070U 86088A   25355.06565807  .00000097  00000+0  88420-4 0  9993", "line2": "2 17070  89.6170 183.4403 0041279  95.2642  24.2916 13.75252457960934"}}, "geometry": {"type": "Point", "coordinates": [-176.727626196178, -21.944821745700658]}}, {"type": "Feature", "properties": {"norad_id": 18361, "name": "OSCAR 27", "group": "nnss", "lat": 11.260508370254641, "lon": 79.52173878070747, "alt_km": 1169.1556532471377, "timestamp": "2025-12-21T09:37:22.923219+00:00", "meta": {"OBJECT_NAME": "OSCAR 27", "OBJECT_ID": "1987-080A", "EPOCH": "2025-12-21T04:12:33.526656", "MEAN_MOTION": 13.44908294, "ECCENTRICITY": 0.0103605, "INCLINATION": 90.3739, "RA_OF_ASC_NODE": 79.5878, "ARG_OF_PERICENTER": 199.4724, "MEAN_ANOMALY": 160.2454, "EPHEMERIS_TYPE": 0, "CLASSIFICATION_TYPE": "U", "NORAD_CAT_ID": 18361, "ELEMENT_SET_NO": 999, "REV_AT_EPOCH": 87670, "BSTAR": 0.0001499, "MEAN_MOTION_DOT": 9.9e-07, "MEAN_MOTION_DDOT": 0}, "tle": {"line1": "1 18361U 87080A   25355.17538804  .00000099  00000+0  14990-3 0  9991", "line2": "2 18361  90.3739  79.5878 0103605 199.4724 160.2454 13.44908294876701"}}, "geometry": {"type": "Point", "coordinates": [79.52173878070747, 11.260508370254641]}}, {"type": "Feature", "properties": {"norad_id": 18362, "name": "OSCAR 29", "group": "nnss", "lat": 9.66918848613736, "lon": 79.99187025496914, "alt_km": 1160.0972253055088, "timestamp": "2025-12-21T09:37:22.923229+00:00", "meta": {"OBJECT_NAME": "OSCAR 29", "OBJECT_ID": "1987-080B", "EPOCH": "2025-12-21T04:17:34.545120", "MEAN_MOTION": 13.44449861, "ECCENTRICITY": 0.0104446, "INCLINATION": 90.3751, "RA_OF_ASC_NODE": 80.0475, "ARG_OF_PERICENTER": 222.704, "MEAN_ANOMALY": 152.1595, "EPHEMERIS_TYPE": 0, "CLASSIFICATION_TYPE": "U", "NORAD_CAT_ID": 18362, "ELEMENT_SET_NO": 999, "REV_AT_EPOCH": 87623, "BSTAR": 0.00014494, "MEAN_MOTION_DOT": 9.5e-07, "MEAN_MOTION_DDOT": 0}, "tle": {"line1": "1 18362U 87080B   25355.17887205  .00000095  00000+0  14494-3 0  9999", "line2": "2 18362  90.3751  80.0475 0104446 222.7040 152.1595 13.44449861876235"}}, "geometry": {"type": "Point", "coordinates": [79.99187025496914, 9.66918848613736]}}, {"type": "Feature", "properties": {"norad_id": 19070, "name": "OSCAR 23", "group": "nnss", "lat": -14.783247807478597, "lon": 16.745442399230324, "alt_km": 1301.064879247343, "timestamp": "2025-12-21T09:37:22.923240+00:00", "meta": {"OBJECT_NAME": "OSCAR 23", "OBJECT_ID": "1988-033A", "EPOCH": "2025-12-21T02:46:39.852192", "MEAN_MOTION": 13.27788505, "ECCENTRICITY": 0.0190221, "INCLINATION": 90.3203, "RA_OF_ASC_NODE": 16.652, "ARG_OF_PERICENTER": 156.671, "MEAN_ANOMALY": 266.4478, "EPHEMERIS_TYPE": 0, "CLASSIFICATION_TYPE": "U", "NORAD_CAT_ID": 19070, "ELEMENT_SET_NO": 999, "REV_AT_EPOCH": 82364, "BSTAR": 0.00012248, "MEAN_MOTION_DOT": 7e-07, "MEAN_MOTION_DDOT": 0}, "tle": {"line1": "1 19070U 88033A   25355.11573903  .00000070  00000+0  12248-3 0  9994", "line2": "2 19070  90.3203  16.6520 0190221 156.6710 266.4478 13.27788505823643"}}, "geometry": {"type": "Point", "coordinates": [16.745442399230324, -14.783247807478597]}}, {"type": "Feature", "properties": {"norad_id": 19071, "name": "OSCAR 32", "group": "nnss", "lat": 80.24107041451357, "lon": -161.33939568136358, "alt_km": 1041.9162634474706, "timestamp": "2025-12-21T09:37:22.923264+00:00", "meta": {"OBJECT_NAME": "OSCAR 32", "OBJECT_ID": "1988-033B", "EPOCH": "2025-12-21T02:09:51.621120", "MEAN_MOTION": 13.27955236, "ECCENTRICITY": 0.0188993, "INCLINATION": 90.3209, "RA_OF_ASC_NODE": 16.7837, "ARG_OF_PERICENTER": 143.6549, "MEAN_ANOMALY": 272.6875, "EPHEMERIS_TYPE": 0, "CLASSIFICATION_TYPE": "U", "NORAD_CAT_ID": 19071, "ELEMENT_SET_NO": 999, "REV_AT_EPOCH": 82376, "BSTAR": 0.00012996, "MEAN_MOTION_DOT": 7.4e-07, "MEAN_MOTION_DDOT": 0}, "tle": {"line1": "1 19071U 88033B   25355.09018080  .00000074  00000+0  12996-3 0  9996", "line2": "2 19071  90.3209  16.7837 0188993 143.6549 272.6875 13.27955236823761"}}, "geometry": {"type": "Point", "coordinates": [-161.33939568136358, 80.24107041451357]}}, {"type": "Feature", "properties": {"norad_id": 19223, "name": "NOVA 2", "group": "nnss", "lat": 37.56126605013499, "lon": -101.74834798104746, "alt_km": 1190.2050667784015, "timestamp": "2025-12-21T09:37:22.923277+00:00", "meta": {"OBJECT_NAME": "NOVA 2", "OBJECT_ID": "1988-052A", "EPOCH": "2025-12-21T00:42:28.697184", "MEAN_MOTION": 13.22936699, "ECCENTRICITY": 0.0029891, "INCLINATION": 89.9869, "RA_OF_ASC_NODE": 78.2622, "ARG_OF_PERICENTER": 354.0064, "MEAN_ANOMALY": 180.0876, "EPHEMERIS_TYPE": 0, "CLASSIFICATION_TYPE": "U", "NORAD_CAT_ID": 19223, "ELEMENT_SET_NO": 999, "REV_AT_EPOCH": 81057, "BSTAR": 9.9762e-05, "MEAN_MOTION_DOT": 5.1e-07, "MEAN_MOTION_DDOT": 0}, "tle": {"line1": "1 19223U 88052A   25355.02949881  .00000051  00000+0  99762-4 0  9993", "line2": "2 19223  89.9869  78.2622 0029891 354.0064 180.0876 13.22936699810577"}}, "geometry": {"type": "Point", "coordinates": [-101.74834798104746, 37.56126605013499]}}, {"type": "Feature", "properties": {"norad_id": 19419, "name": "OSCAR 25", "group": "nnss", "lat": 69.58023935066102, "lon": -159.63641727576206, "alt_km": 1117.008257720685, "timestamp": "2025-12-21T09:37:22.923288+00:00", "meta": {"OBJECT_NAME": "OSCAR 25", "OBJECT_ID": "1988-074A", "EPOCH": "2025-12-21T02:00:29.260800", "MEAN_MOTION": 13.4262484, "ECCENTRICITY": 0.0094909, "INCLINATION": 90.0339, "RA_OF_ASC_NODE": 20.2714, "ARG_OF_PERICENTER": 221.6823, "MEAN_ANOMALY": 157.0344, "EPHEMERIS_TYPE": 0, "CLASSIFICATION_TYPE": "U", "NORAD_CAT_ID": 19419, "ELEMENT_SET_NO": 999, "REV_AT_EPOCH": 82752, "BSTAR": 0.0001396, "MEAN_MOTION_DOT": 9e-07, "MEAN_MOTION_DDOT": 0}, "tle": {"line1": "1 19419U 88074A   25355.08367200  .00000090  00000+0  13960-3 0  9997", "line2": "2 19419  90.0339  20.2714 0094909 221.6823 157.0344 13.42624840827523"}}, "geometry": {"type": "Point", "coordinates": [-159.63641727576206, 69.58023935066102]}}, {"type": "Feature", "properties": {"norad_id": 19420, "name": "OSCAR 31", "group": "nnss", "lat": -5.451493104645018, "lon": 20.62705984541144, "alt_km": 1156.2616729044094, "timestamp": "2025-12-21T09:37:22.923298+00:00", "meta": {"OBJECT_NAME": "OSCAR 31", "OBJECT_ID": "1988-074B", "EPOCH": "2025-12-21T02:52:01.471008", "MEAN_MOTION": 13.42586063, "ECCENTRICITY": 0.009328, "INCLINATION": 90.0353, "RA_OF_ASC_NODE": 20.6227, "ARG_OF_PERICENTER": 215.7177, "MEAN_ANOMALY": 218.4862, "EPHEMERIS_TYPE": 0, "CLASSIFICATION_TYPE": "U", "NORAD_CAT_ID": 19420, "ELEMENT_SET_NO": 999, "REV_AT_EPOCH": 82763, "BSTAR": 0.00013485, "MEAN_MOTION_DOT": 8.7e-07, "MEAN_MOTION_DDOT": 0}, "tle": {"line1": "1 19420U 88074B   25355.11946147  .00000087  00000+0  13485-3 0  9994", "line2": "2 19420  90.0353  20.6227 0093280 215.7177 218.4862 13.42586063827634"}}, "geometry": {"type": "Point", "coordinates": [20.62705984541144, -5.451493104645018]}}]}